{"type": "FeatureCollection", "features": [ {"type": "Feature", "properties": {"norad_id": 66928, "name": "STARLINK-35944", "group": "last-30-days", "lat": 3.6583124902684507, "lon": 14.726730891620484, "alt_km": 337.92611249774836, "timestamp": "2025-12-20T09:36:00.354643+00:00", "meta": {"OBJECT_NAME": "STARLINK-35944", "OBJECT_ID": "2025-286D", "EPOCH": "2025-12-20T04:00:00.999072", "MEAN_MOTION": 15.78209651, "ECCENTRICITY": 9.58e-05, "INCLINATION": 53.156, "RA_OF_ASC_NODE": 13.1434, "ARG_OF_PERICENTER": 89.5276, "MEAN_ANOMALY": 29.0316, "EPHEMERIS_TYPE": 0, "CLASSIFICATION_TYPE": "U", "NORAD_CAT_ID": 66928, "ELEMENT_SET_NO": 999, "REV_AT_EPOCH": 318, "BSTAR": -0.0088784, "MEAN_MOTION_DOT": -0.01382194, "MEAN_MOTION_DDOT": 0}, "tle": {"line1": "1 66928U 25286D   25354.16667823 -.01382194  00000+0 -88784-2 0  9998", "line2": "2 66928  53.1560  13.1434 0000958  89.5276  29.0316 15.78209651  3185"}}, "geometry": {"type": "Point", "coordinates": [14.726730891620484, 3.6583124902684507]}}, {"type": "Feature", "properties": {"norad_id": 66929, "name": "STARLINK-36169", "group": "last-30-days", "lat": 8.63738638855133, "lon": 18.506083831805586, "alt_km": 337.32887369759464, "timestamp": "2025-12-20T09:36:00.354653+00:00", "meta": {"OBJECT_NAME": "STARLINK-36169", "OBJECT_ID": "2025-286E", "EPOCH": "2025-12-20T04:00:00.999072", "MEAN_MOTION": 15.78130832, "ECCENTRICITY": 0.000129, "INCLINATION": 53.1562, "RA_OF_ASC_NODE": 13.1302, "ARG_OF_PERICENTER": 80.8706, "MEAN_ANOMALY": 44.0081, "EPHEMERIS_TYPE": 0, "CLASSIFICATION_TYPE": "U", "NORAD_CAT_ID": 66929, "ELEMENT_SET_NO": 999, "REV_AT_EPOCH": 318, "BSTAR": -0.009137, "MEAN_MOTION_DOT": -0.01413612, "MEAN_MOTION_DDOT": 0}, "tle": {"line1": "1 66929U 25286E   25354.16667823 -.01413612  00000+0 -91370-2 0  9994", "line2": "2 66929  53.1562  13.1302 0001290  80.8706  44.0081 15.78130832  3184"}}, "geometry": {"type": "Point", "coordinates": [18.506083831805586, 8.63738638855133]}}, {"type": "Feature", "properties": {"norad_id": 66930, "name": "STARLINK-36206", "group": "last-30-days", "lat": 10.250922725768762, "lon": 19.755048446178044, "alt_km": 337.32519549914196, "timestamp": "2025-12-20T09:36:00.354665+00:00", "meta": {"OBJECT_NAME": "STARLINK-36206", "OBJECT_ID": "2025-286F", "EPOCH": "2025-12-20T04:00:00.999072", "MEAN_MOTION": 15.78107033, "ECCENTRICITY": 8.8e-05, "INCLINATION": 53.156, "RA_OF_ASC_NODE": 13.1258, "ARG_OF_PERICENTER": 97.5902, "MEAN_ANOMALY": 29.3359, "EPHEMERIS_TYPE": 0, "CLASSIFICATION_TYPE": "U", "NORAD_CAT_ID": 66930, "ELEMENT_SET_NO": 999, "REV_AT_EPOCH": 318, "BSTAR": -0.00914, "MEAN_MOTION_DOT": -0.0141243, "MEAN_MOTION_DDOT": 0}, "tle": {"line1": "1 66930U 25286F   25354.16667823 -.01412430  00000+0 -91400-2 0  9997", "line2": "2 66930  53.1560  13.1258 0000880  97.5902  29.3359 15.78107033  3182"}}, "geometry": {"type": "Point", "coordinates": [19.755048446178044, 10.250922725768762]}}, {"type": "Feature", "properties": {"norad_id": 66931, "name": "STARLINK-36130", "group": "last-30-days", "lat": 11.941022839973103, "lon": 21.081318822039954, "alt_km": 337.03627060524286, "timestamp": "2025-12-20T09:36:00.354676+00:00", "meta": {"OBJECT_NAME": "STARLINK-36130", "OBJECT_ID": "2025-286G", "EPOCH": "2025-12-20T04:00:00.999072", "MEAN_MOTION": 15.78067493, "ECCENTRICITY": 0.0001225, "INCLINATION": 53.1559, "RA_OF_ASC_NODE": 13.1213, "ARG_OF_PERICENTER": 84.2495, "MEAN_ANOMALY": 44.8506, "EPHEMERIS_TYPE": 0, "CLASSIFICATION_TYPE": "U", "NORAD_CAT_ID": 66931, "ELEMENT_SET_NO": 999, "REV_AT_EPOCH": 318, "BSTAR": -0.0092453, "MEAN_MOTION_DOT": -0.01424784, "MEAN_MOTION_DDOT": 0}, "tle": {"line1": "1 66931U 25286G   25354.16667823 -.01424784  00000+0 -92453-2 0  9992", "line2": "2 66931  53.1559  13.1213 0001225  84.2495  44.8506 15.78067493  3187"}}, "geometry": {"type": "Point", "coordinates": [21.081318822039954, 11.941022839973103]}}, {"type": "Feature", "properties": {"norad_id": 66932, "name": "STARLINK-36177", "group": "last-30-days", "lat": 13.608967046313797, "lon": 22.41126951975138, "alt_km": 336.7987836739021, "timestamp": "2025-12-20T09:36:00.354686+00:00", "meta": {"OBJECT_NAME": "STARLINK-36177", "OBJECT_ID": "2025-286H", "EPOCH": "2025-12-20T04:00:00.999072", "MEAN_MOTION": 15.7802682, "ECCENTRICITY": 0.0001202, "INCLINATION": 53.1559, "RA_OF_ASC_NODE": 13.1166, "ARG_OF_PERICENTER": 76.0463, "MEAN_ANOMALY": 55.2035, "EPHEMERIS_TYPE": 0, "CLASSIFICATION_TYPE": "U", "NORAD_CAT_ID": 66932, "ELEMENT_SET_NO": 999, "REV_AT_EPOCH": 318, "BSTAR": -0.0093338, "MEAN_MOTION_DOT": -0.01434503, "MEAN_MOTION_DDOT": 0}, "tle": {"line1": "1 66932U 25286H   25354.16667823 -.01434503  00000+0 -93338-2 0  9996", "line2": "2 66932  53.1559  13.1166 0001202  76.0463  55.2035 15.78026820  3186"}}, "geometry": {"type": "Point", "coordinates": [22.41126951975138, 13.608967046313797]}}, {"type": "Feature", "properties": {"norad_id": 66933, "name": "STARLINK-36157", "group": "last-30-days", "lat": 15.25397700947378, "lon": 23.74753789667153, "alt_km": 336.66138095223323, "timestamp": "2025-12-20T09:36:00.354696+00:00", "meta": {"OBJECT_NAME": "STARLINK-36157", "OBJECT_ID": "2025-286J", "EPOCH": "2025-12-20T04:00:00.999072", "MEAN_MOTION": 15.77986202, "ECCENTRICITY": 0.0001027, "INCLINATION": 53.156, "RA_OF_ASC_NODE": 13.1123, "ARG_OF_PERICENTER": 71.991, "MEAN_ANOMALY": 61.3845, "EPHEMERIS_TYPE": 0, "CLASSIFICATION_TYPE": "U", "NORAD_CAT_ID": 66933, "ELEMENT_SET_NO": 999, "REV_AT_EPOCH": 318, "BSTAR": -0.0093447, "MEAN_MOTION_DOT": -0.01433549, "MEAN_MOTION_DDOT": 0}, "tle": {"line1": "1 66933U 25286J   25354.16667823 -.01433549  00000+0 -93447-2 0  9997", "line2": "2 66933  53.1560  13.1123 0001027  71.9910  61.3845 15.77986202  3183"}}, "geometry": {"type": "Point", "coordinates": [23.74753789667153, 15.25397700947378]}}, {"type": "Feature", "properties": {"norad_id": 66934, "name": "STARLINK-36153", "group": "last-30-days", "lat": 16.893601594447123, "lon": 25.106911151525065, "alt_km": 336.3859586570934, "timestamp": "2025-12-20T09:36:00.354708+00:00", "meta": {"OBJECT_NAME": "STARLINK-36153", "OBJECT_ID": "2025-286K", "EPOCH": "2025-12-20T04:00:00.999072", "MEAN_MOTION": 15.77958663, "ECCENTRICITY": 0.0001317, "INCLINATION": 53.156, "RA_OF_ASC_NODE": 13.1077, "ARG_OF_PERICENTER": 72.8512, "MEAN_ANOMALY": 62.6526, "EPHEMERIS_TYPE": 0, "CLASSIFICATION_TYPE": "U", "NORAD_CAT_ID": 66934, "ELEMENT_SET_NO": 999, "REV_AT_EPOCH": 318, "BSTAR": -0.0095115, "MEAN_MOTION_DOT": -0.01454728, "MEAN_MOTION_DDOT": 0}, "tle": {"line1": "1 66934U 25286K   25354.16667823 -.01454728  00000+0 -95115-2 0  9994", "line2": "2 66934  53.1560  13.1077 0001317  72.8512  62.6526 15.77958663  3182"}}, "geometry": {"type": "Point", "coordinates": [25.106911151525065, 16.893601594447123]}}, {"type": "Feature", "properties": {"norad_id": 66935, "name": "STARLINK-36127", "group": "last-30-days", "lat": 18.596093147383876, "lon": 26.552314162235707, "alt_km": 336.48754161753095, "timestamp": "2025-12-20T09:36:00.354720+00:00", "meta": {"OBJECT_NAME": "STARLINK-36127", "OBJECT_ID": "2025-286L", "EPOCH": "2025-12-20T04:00:00.999072", "MEAN_MOTION": 15.77892034, "ECCENTRICITY": 0.0001141, "INCLINATION": 53.156, "RA_OF_ASC_NODE": 13.1031, "ARG_OF_PERICENTER": 85.2966, "MEAN_ANOMALY": 52.4538, "EPHEMERIS_TYPE": 0, "CLASSIFICATION_TYPE": "U", "NORAD_CAT_ID": 66935, "ELEMENT_SET_NO": 999, "REV_AT_EPOCH": 318, "BSTAR": -0.0095643, "MEAN_MOTION_DOT": -0.01457849, "MEAN_MOTION_DDOT": 0}, "tle": {"line1": "1 66935U 25286L   25354.16667823 -.01457849  00000+0 -95643-2 0  9998", "line2": "2 66935  53.1560  13.1031 0001141  85.2966  52.4538 15.77892034  3188"}}, "geometry": {"type": "Point", "coordinates": [26.552314162235707, 18.596093147383876]}}, {"type": "Feature", "properties": {"norad_id": 66936, "name": "STARLINK-36160", "group": "last-30-days", "lat": 20.173152043663663, "lon": 27.926300312354552, "alt_km": 336.18337644512485, "timestamp": "2025-12-20T09:36:00.354732+00:00", "meta": {"OBJECT_NAME": "STARLINK-36160", "OBJECT_ID": "2025-286M", "EPOCH": "2025-12-20T04:00:00.999072", "MEAN_MOTION": 15.77859656, "ECCENTRICITY": 0.0001106, "INCLINATION": 53.1562, "RA_OF_ASC_NODE": 13.0992, "ARG_OF_PERICENTER": 71.5523, "MEAN_ANOMALY": 68.2646, "EPHEMERIS_TYPE": 0, "CLASSIFICATION_TYPE": "U", "NORAD_CAT_ID": 66936, "ELEMENT_SET_NO": 999, "REV_AT_EPOCH": 318, "BSTAR": -0.0095624, "MEAN_MOTION_DOT": -0.01455693, "MEAN_MOTION_DDOT": 0}, "tle": {"line1": "1 66936U 25286M   25354.16667823 -.01455693  00000+0 -95624-2 0  9993", "line2": "2 66936  53.1562  13.0992 0001106  71.5523  68.2646 15.77859656  3182"}}, "geometry": {"type": "Point", "coordinates": [27.926300312354552, 20.173152043663663]}}, {"type": "Feature", "properties": {"norad_id": 66937, "name": "STARLINK-36165", "group": "last-30-days", "lat": 21.74900520289988, "lon": 29.336528357492902, "alt_km": 335.95157280930016, "timestamp": "2025-12-20T09:36:00.354742+00:00", "meta": {"OBJECT_NAME": "STARLINK-36165", "OBJECT_ID": "2025-286N", "EPOCH": "2025-12-20T04:00:00.999072", "MEAN_MOTION": 15.77834105, "ECCENTRICITY": 0.0001188, "INCLINATION": 53.1557, "RA_OF_ASC_NODE": 13.0942, "ARG_OF_PERICENTER": 70.1002, "MEAN_ANOMALY": 71.7961, "EPHEMERIS_TYPE": 0, "CLASSIFICATION_TYPE": "U", "NORAD_CAT_ID": 66937, "ELEMENT_SET_NO": 999, "REV_AT_EPOCH": 318, "BSTAR": -0.0096652, "MEAN_MOTION_DOT": -0.01468047, "MEAN_MOTION_DDOT": 0}, "tle": {"line1": "1 66937U 25286N   25354.16667823 -.01468047  00000+0 -96652-2 0  9993", "line2": "2 66937  53.1557  13.0942 0001188  70.1002  71.7961 15.77834105  3180"}}, "geometry": {"type": "Point", "coordinates": [29.336528357492902, 21.74900520289988]}}]}